NORAD_CAT_ID,OBJECT_NAME,OBJECT_TYPE,EPOCH,MEAN_MOTION,ECCENTRICITY,INCLINATION,RA_OF_ASC_NODE,ARG_OF_PERICENTER,MEAN_ANOMALY,BSTAR,MEAN_MOTION_DOT,MEAN_MOTION_DDOT,TLE_LINE0,TLE_LINE1,TLE_LINE2,SEMIMAJOR_AXIS,PERIOD,APOGEE,PERIGEE,DECAYED
49153.0,STARLINK-3072,PAYLOAD,2024-07-04 20:16:00,14.98331783,0.0002968,70.0008,359.6575,269.8047,90.2772,7.9216e-05,8.52e-06,0.0,0 STARLINK-3072,1 49153U 21082Z   24186.84445320  .00000852  00000-0  79216-4 0  9990,2 49153  70.0008 359.6575 0002968 269.8047  90.2772 14.98331783155151,6950.187,96.107,574.115,569.99,0.0
49153.0,STARLINK-3072,PAYLOAD,2024-07-04 21:52:08,14.98332463,0.0002964,70.0008,359.4892,269.8109,90.2711,8.5408e-05,9.26e-06,0.0,0 STARLINK-3072,1 49153U 21082Z   24186.91121257  .00000926  00000-0  85408-4 0  9990,2 49153  70.0008 359.4892 0002964 269.8109  90.2711 14.98332463156381,6950.185,96.107,574.11,569.99,0.0
49153.0,STARLINK-3072,PAYLOAD,2024-07-05 13:53:29,14.9833031,0.0002919,70.001,357.8066,266.6964,93.3861,4.345e-05,4.25e-06,0.0,0 STARLINK-3072,1 49153U 21082Z   24187.57881440  .00000425  00000-0  43450-4 0  9995,2 49153  70.0010 357.8066 0002919 266.6964  93.3861 14.98330310156483,6950.192,96.107,574.086,570.028,0.0
49153.0,STARLINK-3072,PAYLOAD,2024-07-05 20:18:01,14.9833293,0.000289,70.0011,357.1333,266.6728,93.4101,6.9781e-05,7.4e-06,0.0,0 STARLINK-3072,1 49153U 21082Z   24187.84585207  .00000740  00000-0  69781-4 0  9992,2 49153  70.0011 357.1333 0002890 266.6728  93.4101 14.98332930155308,6950.184,96.107,574.057,570.04,0.0
49153.0,STARLINK-3072,PAYLOAD,2024-07-05 21:54:09,14.98333186,0.0002891,70.0011,356.965,266.75,93.3328,7.0911e-05,7.53e-06,0.0,0 STARLINK-3072,1 49153U 21082Z   24187.91261177  .00000753  00000-0  70911-4 0  9998,2 49153  70.0011 356.9650 0002891 266.7500  93.3328 14.98333186156537,6950.183,96.107,574.057,570.039,0.0
49153.0,STARLINK-3072,PAYLOAD,2024-07-06 13:55:30,14.98330746,0.0002885,70.0011,355.2817,267.3609,92.722,4.2603e-05,4.15e-06,0.0,0 STARLINK-3072,1 49153U 21082Z   24188.58021246  .00000415  00000-0  42603-4 0  9995,2 49153  70.0011 355.2817 0002885 267.3609  92.7220 14.98330746156638,6950.191,96.107,574.061,570.05,0.0
49153.0,STARLINK-3072,PAYLOAD,2024-07-06 20:20:02,14.98331667,0.0002899,70.0011,354.6084,267.448,92.6347,4.7726e-05,4.77e-06,0.0,0 STARLINK-3072,1 49153U 21082Z   24188.84725171  .00000477  00000-0  47726-4 0  9991,2 49153  70.0011 354.6084 0002899 267.4480  92.6347 14.98331667155451,6950.188,96.107,574.068,570.038,0.0
49153.0,STARLINK-3072,PAYLOAD,2024-07-06 21:56:10,14.98333531,0.0002909,70.0011,354.4399,267.3363,92.7463,6.566e-05,6.91e-06,0.0,0 STARLINK-3072,1 49153U 21082Z   24188.91400997  .00000691  00000-0  65660-4 0  9990,2 49153  70.0011 354.4399 0002909 267.3363  92.7463 14.98333531156687,6950.182,96.107,574.069,570.025,0.0
49153.0,STARLINK-3072,PAYLOAD,2024-07-07 13:57:31,14.98336338,0.0002949,70.001,352.7565,268.1515,91.9306,-8.0586e-05,-1.055e-05,0.0,0 STARLINK-3072,1 49153U 21082Z   24189.58161182 -.00001055  00000-0 -80586-4 0  9995,2 49153  70.0010 352.7565 0002949 268.1515  91.9306 14.98336338156780,6950.173,96.107,574.088,569.989,0.0
49153.0,STARLINK-3072,PAYLOAD,2024-07-07 20:22:03,14.98331564,0.0002918,70.0011,352.0831,267.5836,92.4989,3.9827e-05,3.82e-06,0.0,0 STARLINK-3072,1 49153U 21082Z   24189.84865179  .00000382  00000-0  39827-4 0  9993,2 49153  70.0011 352.0831 0002918 267.5836  92.4989 14.98331564155604,6950.188,96.107,574.081,570.025,0.0
49153.0,STARLINK-3072,PAYLOAD,2024-07-08 12:23:24,14.98320915,0.0003032,70.0006,350.3992,268.9886,91.0925,0.00011953,1.333e-05,0.0,0 STARLINK-3072,1 49153U 21082Z   24190.51625655  .00001333  00000-0  11953-3 0  9998,2 49153  70.0006 350.3992 0003032 268.9886  91.0925 14.98320915155709,6950.221,96.108,574.193,569.979,0.0
49153.0,STARLINK-3072,PAYLOAD,2024-07-08 13:59:32,14.98326779,0.0003027,70.0007,350.2311,269.8011,90.2801,2.527e-05,2.09e-06,0.0,0 STARLINK-3072,1 49153U 21082Z   24190.58301501  .00000209  00000-0  25270-4 0  9995,2 49153  70.0007 350.2311 0003027 269.8011  90.2801 14.98326779156932,6950.203,96.107,574.172,569.964,0.0
49153.0,STARLINK-3072,PAYLOAD,2024-07-08 20:24:04,14.98331906,0.0002999,70.0007,349.5578,268.9654,91.1162,3.8332e-05,3.64e-06,0.0,0 STARLINK-3072,1 49153U 21082Z   24190.85005156  .00000364  00000-0  38332-4 0  9997,2 49153  70.0007 349.5578 0002999 268.9654  91.1162 14.98331906155755,6950.187,96.107,574.136,569.968,0.0
49153.0,STARLINK-3072,PAYLOAD,2024-07-09 14:01:33,14.98331005,0.0003006,70.0006,347.7053,269.513,90.5685,7.6018e-05,8.14e-06,0.0,0 STARLINK-3072,1 49153U 21082Z   24191.58441071  .00000814  00000-0  76018-4 0  9991,2 49153  70.0006 347.7053 0003006 269.5130  90.5685 14.98331005157089,6950.19,96.107,574.144,569.966,0.0
49153.0,STARLINK-3072,PAYLOAD,2024-07-09 20:26:05,14.98335122,0.0003011,70.0008,347.032,269.4871,90.5943,8.8201e-05,9.6e-06,0.0,0 STARLINK-3072,1 49153U 21082Z   24191.85144757  .00000960  00000-0  88201-4 0  9991,2 49153  70.0008 347.0320 0003011 269.4871  90.5943 14.98335122155908,6950.177,96.107,574.135,569.949,0.0
49153.0,STARLINK-3072,PAYLOAD,2024-07-10 10:51:18,14.98327525,0.0002964,70.0009,345.5171,269.5004,90.5815,4.6577e-05,4.63e-06,0.0,0 STARLINK-3072,1 49153U 21082Z   24192.45229335  .00000463  00000-0  46577-4 0  9992,2 49153  70.0009 345.5171 0002964 269.5004  90.5815 14.98327525155996,6950.201,96.107,574.126,570.006,0.0
49153.0,STARLINK-3072,PAYLOAD,2024-07-10 20:28:06,14.98330862,0.0003013,70.0008,344.5075,270.1285,89.9529,5.1833e-05,5.26e-06,0.0,0 STARLINK-3072,1 49153U 21082Z   24192.85285120  .00000526  00000-0  51833-4 0  9991,2 49153  70.0008 344.5075 0003013 270.1285  89.9529 14.98330862157277,6950.19,96.107,574.149,569.961,0.0
49153.0,STARLINK-3072,PAYLOAD,2024-07-11 14:05:34,14.98333895,0.0002941,70.0013,342.6562,271.582,88.5002,3.2041e-05,2.89e-06,0.0,0 STARLINK-3072,1 49153U 21082Z   24193.58720936  .00000289  00000-0  32041-4 0  9997,2 49153  70.0013 342.6562 0002941 271.5820  88.5002 14.98333895157384,6950.181,96.107,574.09,570.002,0.0
49153.0,STARLINK-3072,PAYLOAD,2024-07-11 17:17:50,14.98334524,0.0002846,70.0016,342.3204,266.9404,93.143,4.9152e-05,4.94e-06,0.0,0 STARLINK-3072,1 49153U 21082Z   24193.72072804  .00000494  00000-0  49152-4 0  9996,2 49153  70.0016 342.3204 0002846 266.9404  93.1430 14.98334524156181,6950.179,96.107,574.022,570.066,0.0
49153.0,STARLINK-3072,PAYLOAD,2024-07-12 14:07:35,14.98330023,0.0002878,70.0016,340.1322,267.0934,92.9896,4.3951e-05,4.31e-06,0.0,0 STARLINK-3072,1 49153U 21082Z   24194.58861044  .00000431  00000-0  43951-4 0  9995,2 49153  70.0016 340.1322 0002878 267.0934  92.9896 14.98330023157536,6950.193,96.107,574.058,570.058,0.0
49153.0,STARLINK-3072,PAYLOAD,2024-07-12 20:32:07,14.98333724,0.0002861,70.0017,339.459,266.3122,93.771,8.033e-05,8.66e-06,0.0,0 STARLINK-3072,1 49153U 21082Z   24194.85564696  .00000866  00000-0  80330-4 0  9992,2 49153  70.0017 339.4590 0002861 266.3122  93.7710 14.98333724156352,6950.181,96.107,574.035,570.058,0.0
49153.0,STARLINK-3072,PAYLOAD,2024-07-13 14:09:36,14.9833125,0.0002876,70.0017,337.6075,267.2341,92.8489,-3.9566e-07,-9.8e-07,0.0,0 STARLINK-3072,1 49153U 21082Z   24195.59001022 -.00000098  00000-0 -39566-6 0  9999,2 49153  70.0017 337.6075 0002876 267.2341  92.8489 14.98331250157681,6950.189,96.107,574.053,570.055,0.0
49153.0,STARLINK-3072,PAYLOAD,2024-07-13 18:58:00,14.98333457,0.0002872,70.0018,337.1024,267.8051,92.2779,2.2167e-05,1.72e-06,0.0,0 STARLINK-3072,1 49153U 21082Z   24195.79028794  .00000172  00000-0  22167-4 0  9994,2 49153  70.0018 337.1024 0002872 267.8051  92.2779 14.98333457157712,6950.182,96.107,574.043,570.051,0.0
49153.0,STARLINK-3072,PAYLOAD,2024-07-14 02:58:41,14.98332885,0.0003083,70.0013,336.2589,270.1371,89.9435,2.3272e-05,1.85e-06,0.0,0 STARLINK-3072,1 49153U 21082Z   24196.12408737  .00000185  00000-0  23272-4 0  9993,2 49153  70.0013 336.2589 0003083 270.1371  89.9435 14.98332885156546,6950.184,96.107,574.192,569.906,0.0
49153.0,STARLINK-3072,PAYLOAD,2024-07-14 14:11:37,14.98330102,0.0002908,70.0017,335.0826,267.7071,92.3755,4.6176e-05,4.58e-06,0.0,0 STARLINK-3072,1 49153U 21082Z   24196.59140922  .00000458  00000-0  46176-4 0  9994,2 49153  70.0017 335.0826 0002908 267.7071  92.3755 14.98330102157831,6950.193,96.107,574.079,570.036,0.0
49153.0,STARLINK-3072,PAYLOAD,2024-07-14 19:00:01,14.9833422,0.0002829,70.002,334.578,264.4277,95.6559,8.76e-05,9.53e-06,0.0,0 STARLINK-3072,1 49153U 21082Z   24196.79168538  .00000953  00000-0  87600-4 0  9996,2 49153  70.0020 334.5780 0002829 264.4277  95.6559 14.98334220157868,6950.18,96.107,574.011,570.079,0.0
49153.0,STARLINK-3072,PAYLOAD,2024-07-15 12:37:30,14.98327557,0.0002944,70.0023,332.7269,268.9152,91.167,5.4134e-05,5.53e-06,0.0,0 STARLINK-3072,1 49153U 21082Z   24197.52605059  .00000553  00000-0  54134-4 0  9994,2 49153  70.0023 332.7269 0002944 268.9152  91.1670 14.98327557156759,6950.2,96.107,574.112,570.019,0.0
49153.0,STARLINK-3072,PAYLOAD,2024-07-15 14:13:38,14.98327538,0.0002948,70.0023,332.5586,268.9122,91.17,5.5028e-05,5.64e-06,0.0,0 STARLINK-3072,1 49153U 21082Z   24197.59281068  .00000564  00000-0  55028-4 0  9996,2 49153  70.0023 332.5586 0002948 268.9122  91.1700 14.98327538157989,6950.201,96.107,574.114,570.017,0.0
49153.0,STARLINK-3072,PAYLOAD,2024-07-15 19:02:02,14.98334728,0.0002976,70.0018,332.0514,268.9659,91.1159,0.00011643,1.297e-05,0.0,0 STARLINK-3072,1 49153U 21082Z   24197.79308430  .00001297  00000-0  11643-3 0  9999,2 49153  70.0018 332.0514 0002976 268.9659  91.1159 14.98334728156790,6950.178,96.107,574.112,569.975,0.0
49153.0,STARLINK-3072,PAYLOAD,2024-07-16 14:15:39,14.98334233,0.000272,70.0021,330.0327,271.3293,88.7555,3.7161e-05,3.51e-06,0.0,0 STARLINK-3072,1 49153U 21082Z   24198.59420478  .00000351  00000-0  37161-4 0  9999,2 49153  70.0021 330.0327 0002720 271.3293  88.7555 14.98334233158136,6950.18,96.107,573.935,570.154,0.0
